{
  "norad_id": 64756,
  "name": "STARLINK-34371",
  "history": [
    {
      "epoch": "2026-03-28T14:20:00.380832Z",
      "apogee_km": 476.10367001927625,
      "perigee_km": 474.27794349155556,
      "latitude_deg": -6.571443450150165e-05,
      "longitude_deg": 114.12107500314949,
      "height_km": 475.7143785017076,
      "semi_major_axis_km": 6853.327806755416,
      "eccentricity": 0.0001332,
      "inclination_deg": 53.1595,
      "raan_deg": 155.1381,
      "arg_perigee_deg": 65.7765,
      "mean_anomaly_deg": 294.3374,
      "mean_motion_rev_day": 15.30208126
    }
  ]
}